[
    {
        "Altitude(m)": 604983.0530847653,
        "Argument of Periapsis(deg)": 0.0,
        "Eccentricity": 0.0,
        "Inclination(deg)": 60.0,
        "Latitude(deg)": -0.09274436964821473,
        "Longitude(deg)": -74.91608359317858,
        "Mean Anomaly(deg)": -180.00000000000003,
        "RAAN(deg)": 205.0,
        "Satellite Name": "Test1 913",
        "Satellite Number": 913,
        "Semi-Major Axis(m)": 6980739.136638005,
        "Time(s)": 0
    },
    {
        "Altitude(m)": 605055.3332184656,
        "Argument of Periapsis(deg)": 0.00010418945913296404,
        "Eccentricity": 0.0,
        "Inclination(deg)": 60.0,
        "Latitude(deg)": -0.6331542254613708,
        "Longitude(deg)": -74.6479586427871,
        "Mean Anomaly(deg)": -179.37989385453818,
        "RAAN(deg)": 204.99957995086024,
        "Satellite Name": "Test1 913",
        "Satellite Number": 913,
        "Semi-Major Axis(m)": 6980739.136638005,
        "Time(s)": 10
    }
]